{
  "norad_id": 62209,
  "name": "STARLINK-32671",
  "history": [
    {
      "epoch": "2026-03-28T13:39:00.381024Z",
      "apogee_km": 483.9397287318816,
      "perigee_km": 482.04468484496556,
      "latitude_deg": 3.9650827907075464e-05,
      "longitude_deg": 133.7822289613749,
      "height_km": 482.5819306190292,
      "semi_major_axis_km": 6861.129206788423,
      "eccentricity": 0.0001381,
      "inclination_deg": 42.9998,
      "raan_deg": 164.5211,
      "arg_perigee_deg": 281.3786,
      "mean_anomaly_deg": 78.6911,
      "mean_motion_rev_day": 15.27598999
    }
  ]
}